{"type": "FeatureCollection", "features": [ {"type": "Feature", "properties": {"norad_id": 66939, "name": "STARLINK-36154", "group": "last-30-days", "lat": -27.589262070421718, "lon": -174.32367663840722, "alt_km": 403.61837709820793, "timestamp": "2025-12-26T08:37:53.293068+00:00", "meta": {"OBJECT_NAME": "STARLINK-36154", "OBJECT_ID": "2025-286Q", "EPOCH": "2025-12-26T04:00:01.998720", "MEAN_MOTION": 15.56869003, "ECCENTRICITY": 0.0001695, "INCLINATION": 53.1593, "RA_OF_ASC_NODE": 343.544, "ARG_OF_PERICENTER": 87.723, "MEAN_ANOMALY": 125.7672, "EPHEMERIS_TYPE": 0, "CLASSIFICATION_TYPE": "U", "NORAD_CAT_ID": 66939, "ELEMENT_SET_NO": 999, "REV_AT_EPOCH": 414, "BSTAR": -0.031103, "MEAN_MOTION_DOT": -0.02033482, "MEAN_MOTION_DDOT": 0}, "tle": {"line1": "1 66939U 25286Q   25360.16668980 -.02033482  00000+0 -31103-1 0  9998", "line2": "2 66939  53.1593 343.5440 0001695  87.7230 125.7672 15.56869003  4144"}}, "geometry": {"type": "Point", "coordinates": [-174.32367663840722, -27.589262070421718]}}, {"type": "Feature", "properties": {"norad_id": 66940, "name": "STARLINK-36121", "group": "last-30-days", "lat": -28.990090535035538, "lon": -172.8470713971963, "alt_km": 403.67072094723517, "timestamp": "2025-12-26T08:37:53.293078+00:00", "meta": {"OBJECT_NAME": "STARLINK-36121", "OBJECT_ID": "2025-286R", "EPOCH": "2025-12-26T04:00:01.998720", "MEAN_MOTION": 15.56898219, "ECCENTRICITY": 0.0001529, "INCLINATION": 53.1594, "RA_OF_ASC_NODE": 343.5401, "ARG_OF_PERICENTER": 85.3391, "MEAN_ANOMALY": 130.0548, "EPHEMERIS_TYPE": 0, "CLASSIFICATION_TYPE": "U", "NORAD_CAT_ID": 66940, "ELEMENT_SET_NO": 999, "REV_AT_EPOCH": 414, "BSTAR": -0.031713, "MEAN_MOTION_DOT": -0.02071006, "MEAN_MOTION_DDOT": 0}, "tle": {"line1": "1 66940U 25286R   25360.16668980 -.02071006  00000+0 -31713-1 0  9991", "line2": "2 66940  53.1594 343.5401 0001529  85.3391 130.0548 15.56898219  4144"}}, "geometry": {"type": "Point", "coordinates": [-172.8470713971963, -28.990090535035538]}}, {"type": "Feature", "properties": {"norad_id": 66941, "name": "STARLINK-36088", "group": "last-30-days", "lat": -43.22700314633588, "lon": -152.62964519428047, "alt_km": 399.07786569117616, "timestamp": "2025-12-26T08:37:53.293088+00:00", "meta": {"OBJECT_NAME": "STARLINK-36088", "OBJECT_ID": "2025-286S", "EPOCH": "2025-12-26T04:00:01.998720", "MEAN_MOTION": 15.58788359, "ECCENTRICITY": 0.000159, "INCLINATION": 53.1593, "RA_OF_ASC_NODE": 343.4988, "ARG_OF_PERICENTER": 92.4861, "MEAN_ANOMALY": 143.2056, "EPHEMERIS_TYPE": 0, "CLASSIFICATION_TYPE": "U", "NORAD_CAT_ID": 66941, "ELEMENT_SET_NO": 999, "REV_AT_EPOCH": 414, "BSTAR": -0.028793, "MEAN_MOTION_DOT": -0.01988307, "MEAN_MOTION_DDOT": 0}, "tle": {"line1": "1 66941U 25286S   25360.16668980 -.01988307  00000+0 -28793-1 0  9996", "line2": "2 66941  53.1593 343.4988 0001590  92.4861 143.2056 15.58788359  4147"}}, "geometry": {"type": "Point", "coordinates": [-152.62964519428047, -43.22700314633588]}}, {"type": "Feature", "properties": {"norad_id": 66942, "name": "STARLINK-36100", "group": "last-30-days", "lat": -30.37641967138287, "lon": -171.32809619989905, "alt_km": 403.83345680610273, "timestamp": "2025-12-26T08:37:53.293098+00:00", "meta": {"OBJECT_NAME": "STARLINK-36100", "OBJECT_ID": "2025-286T", "EPOCH": "2025-12-26T04:00:01.998720", "MEAN_MOTION": 15.56895574, "ECCENTRICITY": 0.0001577, "INCLINATION": 53.1596, "RA_OF_ASC_NODE": 343.5358, "ARG_OF_PERICENTER": 84.062, "MEAN_ANOMALY": 133.2525, "EPHEMERIS_TYPE": 0, "CLASSIFICATION_TYPE": "U", "NORAD_CAT_ID": 66942, "ELEMENT_SET_NO": 999, "REV_AT_EPOCH": 408, "BSTAR": -0.031711, "MEAN_MOTION_DOT": -0.02070698, "MEAN_MOTION_DDOT": 0}, "tle": {"line1": "1 66942U 25286T   25360.16668980 -.02070698  00000+0 -31711-1 0  9997", "line2": "2 66942  53.1596 343.5358 0001577  84.0620 133.2525 15.56895574  4087"}}, "geometry": {"type": "Point", "coordinates": [-171.32809619989905, -30.37641967138287]}}, {"type": "Feature", "properties": {"norad_id": 66943, "name": "STARLINK-36109", "group": "last-30-days", "lat": -31.74289046783453, "lon": -169.7669500622199, "alt_km": 403.84031890759707, "timestamp": "2025-12-26T08:37:53.293108+00:00", "meta": {"OBJECT_NAME": "STARLINK-36109", "OBJECT_ID": "2025-286U", "EPOCH": "2025-12-26T04:00:01.998720", "MEAN_MOTION": 15.5689971, "ECCENTRICITY": 0.0001504, "INCLINATION": 53.1594, "RA_OF_ASC_NODE": 343.5317, "ARG_OF_PERICENTER": 89.0832, "MEAN_ANOMALY": 130.1457, "EPHEMERIS_TYPE": 0, "CLASSIFICATION_TYPE": "U", "NORAD_CAT_ID": 66943, "ELEMENT_SET_NO": 999, "REV_AT_EPOCH": 408, "BSTAR": -0.03178, "MEAN_MOTION_DOT": -0.02074952, "MEAN_MOTION_DDOT": 0}, "tle": {"line1": "1 66943U 25286U   25360.16668980 -.02074952  00000+0 -31780-1 0  9991", "line2": "2 66943  53.1594 343.5317 0001504  89.0832 130.1457 15.56899710  4087"}}, "geometry": {"type": "Point", "coordinates": [-169.7669500622199, -31.74289046783453]}}, {"type": "Feature", "properties": {"norad_id": 66944, "name": "STARLINK-36112", "group": "last-30-days", "lat": -33.08907882604382, "lon": -168.16060889419776, "alt_km": 403.94375018098344, "timestamp": "2025-12-26T08:37:53.293118+00:00", "meta": {"OBJECT_NAME": "STARLINK-36112", "OBJECT_ID": "2025-286V", "EPOCH": "2025-12-26T04:00:01.998720", "MEAN_MOTION": 15.56896706, "ECCENTRICITY": 0.0001573, "INCLINATION": 53.1596, "RA_OF_ASC_NODE": 343.5274, "ARG_OF_PERICENTER": 91.8806, "MEAN_ANOMALY": 129.2644, "EPHEMERIS_TYPE": 0, "CLASSIFICATION_TYPE": "U", "NORAD_CAT_ID": 66944, "ELEMENT_SET_NO": 999, "REV_AT_EPOCH": 414, "BSTAR": -0.031701, "MEAN_MOTION_DOT": -0.0207019, "MEAN_MOTION_DDOT": 0}, "tle": {"line1": "1 66944U 25286V   25360.16668980 -.02070190  00000+0 -31701-1 0  9995", "line2": "2 66944  53.1596 343.5274 0001573  91.8806 129.2644 15.56896706  4146"}}, "geometry": {"type": "Point", "coordinates": [-168.16060889419776, -33.08907882604382]}}, {"type": "Feature", "properties": {"norad_id": 66945, "name": "STARLINK-36110", "group": "last-30-days", "lat": -34.413551921521616, "lon": -166.50490104819275, "alt_km": 404.06689069176264, "timestamp": "2025-12-26T08:37:53.293132+00:00", "meta": {"OBJECT_NAME": "STARLINK-36110", "OBJECT_ID": "2025-286W", "EPOCH": "2025-12-26T04:00:01.998720", "MEAN_MOTION": 15.56890832, "ECCENTRICITY": 0.0001558, "INCLINATION": 53.1595, "RA_OF_ASC_NODE": 343.5229, "ARG_OF_PERICENTER": 89.865, "MEAN_ANOMALY": 133.1986, "EPHEMERIS_TYPE": 0, "CLASSIFICATION_TYPE": "U", "NORAD_CAT_ID": 66945, "ELEMENT_SET_NO": 999, "REV_AT_EPOCH": 414, "BSTAR": -0.031528, "MEAN_MOTION_DOT": -0.02059703, "MEAN_MOTION_DDOT": 0}, "tle": {"line1": "1 66945U 25286W   25360.16668980 -.02059703  00000+0 -31528-1 0  9990", "line2": "2 66945  53.1595 343.5229 0001558  89.8650 133.1986 15.56890832  4140"}}, "geometry": {"type": "Point", "coordinates": [-166.50490104819275, -34.413551921521616]}}, {"type": "Feature", "properties": {"norad_id": 66946, "name": "STARLINK-36115", "group": "last-30-days", "lat": -35.715825713216894, "lon": -164.7943165132492, "alt_km": 404.1573893946643, "timestamp": "2025-12-26T08:37:53.293142+00:00", "meta": {"OBJECT_NAME": "STARLINK-36115", "OBJECT_ID": "2025-286X", "EPOCH": "2025-12-26T04:00:01.998720", "MEAN_MOTION": 15.56891309, "ECCENTRICITY": 0.0001539, "INCLINATION": 53.1596, "RA_OF_ASC_NODE": 343.5193, "ARG_OF_PERICENTER": 89.6729, "MEAN_ANOMALY": 135.3081, "EPHEMERIS_TYPE": 0, "CLASSIFICATION_TYPE": "U", "NORAD_CAT_ID": 66946, "ELEMENT_SET_NO": 999, "REV_AT_EPOCH": 414, "BSTAR": -0.031573, "MEAN_MOTION_DOT": -0.02062355, "MEAN_MOTION_DDOT": 0}, "tle": {"line1": "1 66946U 25286X   25360.16668980 -.02062355  00000+0 -31573-1 0  9998", "line2": "2 66946  53.1596 343.5193 0001539  89.6729 135.3081 15.56891309  4146"}}, "geometry": {"type": "Point", "coordinates": [-164.7943165132492, -35.715825713216894]}}, {"type": "Feature", "properties": {"norad_id": 66947, "name": "STARLINK-36089", "group": "last-30-days", "lat": -38.24223708066695, "lon": -161.2020950483468, "alt_km": 404.35483910062976, "timestamp": "2025-12-26T08:37:53.293152+00:00", "meta": {"OBJECT_NAME": "STARLINK-36089", "OBJECT_ID": "2025-286Y", "EPOCH": "2025-12-26T04:00:01.998720", "MEAN_MOTION": 15.56891338, "ECCENTRICITY": 0.0001584, "INCLINATION": 53.1591, "RA_OF_ASC_NODE": 343.5106, "ARG_OF_PERICENTER": 89.3959, "MEAN_ANOMALY": 139.4184, "EPHEMERIS_TYPE": 0, "CLASSIFICATION_TYPE": "U", "NORAD_CAT_ID": 66947, "ELEMENT_SET_NO": 999, "REV_AT_EPOCH": 414, "BSTAR": -0.031533, "MEAN_MOTION_DOT": -0.02060046, "MEAN_MOTION_DDOT": 0}, "tle": {"line1": "1 66947U 25286Y   25360.16668980 -.02060046  00000+0 -31533-1 0  9990", "line2": "2 66947  53.1591 343.5106 0001584  89.3959 139.4184 15.56891338  4149"}}, "geometry": {"type": "Point", "coordinates": [-161.2020950483468, -38.24223708066695]}}, {"type": "Feature", "properties": {"norad_id": 66948, "name": "STARLINK-36116", "group": "last-30-days", "lat": -36.99283334580386, "lon": -163.0279615301252, "alt_km": 404.2560752162826, "timestamp": "2025-12-26T08:37:53.293162+00:00", "meta": {"OBJECT_NAME": "STARLINK-36116", "OBJECT_ID": "2025-286Z", "EPOCH": "2025-12-26T04:00:01.998720", "MEAN_MOTION": 15.56890343, "ECCENTRICITY": 0.0001545, "INCLINATION": 53.1592, "RA_OF_ASC_NODE": 343.5146, "ARG_OF_PERICENTER": 89.0863, "MEAN_ANOMALY": 137.8124, "EPHEMERIS_TYPE": 0, "CLASSIFICATION_TYPE": "U", "NORAD_CAT_ID": 66948, "ELEMENT_SET_NO": 999, "REV_AT_EPOCH": 414, "BSTAR": -0.031531, "MEAN_MOTION_DOT": -0.0205982, "MEAN_MOTION_DDOT": 0}, "tle": {"line1": "1 66948U 25286Z   25360.16668980 -.02059820  00000+0 -31531-1 0  9997", "line2": "2 66948  53.1592 343.5146 0001545  89.0863 137.8124 15.56890343  4144"}}, "geometry": {"type": "Point", "coordinates": [-163.0279615301252, -36.99283334580386]}}]}